{"type":"FeatureCollection","source":"https://opendata.paris.fr/explore/dataset/arrondissements/","license":"ODbL","features":[{"type":"Feature","properties":{"number":1,"name":"1er arrondissement","aliases":["1er Ardt","Halles","Louvre","Palais-Royal","Place-Vendôme","Quartier Les Halles","Quartier Vendôme","Quartier du Palais Royal","Saint-Germain-l'Auxerrois"],"labelPoint":[2.337344784793401,48.8619384198078]},"geometry":{"type":"Polygon","coordinates":[[[2.32799095019138,48.86992896784402],[2.329965588686571,48.868514169174276],[2.330656733960091,48.86819218066117],[2.3336753213001957,48.867516125009374],[2.337371969067098,48.866649074394566],[2.3509491052189238,48.86340592861751],[2.347564869260336,48.857349228033435],[2.3475186520907547,48.85731218268785],[2.34718446078716,48.857164017583415],[2.3470526601413435,48.85707904635738],[2.346986271958066,48.85700927215511],[2.346104388518792,48.85558678354527],[2.3459014238326805,48.85531423431254],[2.3445926774963546,48.85404922924987],[2.342857446643515,48.85486264682755],[2.342682482361056,48.85498253104032],[2.3408553914850594,48.85656290679506],[2.337546764444436,48.85838861106824],[2.332910100578299,48.85934960615885],[2.3299089834475466,48.86013158099518],[2.3283115325955346,48.86073713622665],[2.326102290322419,48.8614780609023],[2.3252372011972473,48.86172976720176],[2.3209028536731826,48.86305739061689],[2.3235709178707706,48.866493051874286],[2.3235340500814465,48.866509863622525],[2.324673957331719,48.86805646908108],[2.3253195856504822,48.869011837426584],[2.325159177504882,48.86944886574229],[2.32799095019138,48.86992896784402]]]}},{"type":"Feature","properties":{"number":2,"name":"2e arrondissement","aliases":["2ème Ardt","Bonne-Nouvelle","Bourse","Gaillon","Mail","Quartier du Mail","Vivienne"],"labelPoint":[2.343034748261558,48.867735470804526]},"geometry":{"type":"Polygon","coordinates":[[[2.3542605804166112,48.86933005072561],[2.3509491052189238,48.86340592861751],[2.337371969067098,48.866649074394566],[2.3336753213001957,48.867516125009374],[2.330656733960091,48.86819218066117],[2.329965588686571,48.868514169174276],[2.328007329038849,48.86991742140714],[2.34004423190851,48.871980826423716],[2.347880282483183,48.870704148509446],[2.3526310157278467,48.86969449880021],[2.3542605804166112,48.86933005072561]]]}},{"type":"Feature","properties":{"number":3,"name":"3e arrondissement","aliases":["3ème Ardt","Archives","Arts-et-Métiers","Enfants-Rouges","Quartier Sainte-Avoye","Quartier des Archives","Quartier des Arts-et-Métiers","Quartier des Enfants-Rouges","Sainte-Avoie","Temple"],"labelPoint":[2.358704069541821,48.862738007967764]},"geometry":{"type":"Polygon","coordinates":[[[2.363264895211807,48.867842872396096],[2.3642488892099323,48.8672538841255],[2.3667030510352505,48.86316992059441],[2.3667515140177042,48.86306019349359],[2.3685123713934337,48.855734128136696],[2.364450234914046,48.856409028484],[2.3617513171804068,48.85725137627839],[2.360695193360699,48.85769153001847],[2.3593718739388545,48.85832345591014],[2.35880795160968,48.85869587068337],[2.356903330605401,48.86006582105499],[2.3533407894258884,48.861272775114884],[2.3501560417567346,48.86199119077518],[2.3542605804166112,48.86933005072561],[2.356376304637887,48.86885263760979],[2.3590120670016783,48.868455386706195],[2.363264895211807,48.867842872396096]]]}},{"type":"Feature","properties":{"number":4,"name":"4e arrondissement","aliases":["4ème Ardt","Arsenal","Hôtel-de-Ville","Notre-Dame","Quartier Les Îles","Quartier Saint-Gervais","Quartier Saint-Merri","Quartier de l'Arsenal","Saint-Gervais","Saint-Merri"],"labelPoint":[2.3570037827051715,48.85466359340337]},"geometry":{"type":"Polygon","coordinates":[[[2.3685123713934337,48.855734128136696],[2.369137996500428,48.853162841558365],[2.368385844883155,48.851545345931456],[2.366502596086439,48.84737124454913],[2.3644331283557967,48.846140036887],[2.362493498379018,48.847622410312276],[2.361514791805426,48.84823179045341],[2.3598164850506382,48.849181606718474],[2.359174815637675,48.84947930399825],[2.358545112198726,48.84970856698768],[2.3555115681982888,48.850686179114064],[2.353705957159685,48.851220903051335],[2.352515571675153,48.851390050115754],[2.3516010004687717,48.851594486214694],[2.3500428561823012,48.852000270800694],[2.349641135827662,48.85213952141159],[2.3484702016689223,48.852612295947125],[2.346946547063861,48.85329364714174],[2.3445926774963546,48.85404922924987],[2.3459014238326805,48.85531423431254],[2.346104388518792,48.85558678354527],[2.346986271958066,48.85700927215511],[2.3470526601413435,48.85707904635738],[2.34718446078716,48.857164017583415],[2.3475186520907547,48.85731218268785],[2.347564869260336,48.857349228033435],[2.3501560417567346,48.86199119077518],[2.3533407894258884,48.861272775114884],[2.356903330605401,48.86006582105499],[2.35880795160968,48.85869587068337],[2.3593718739388545,48.85832345591014],[2.360695193360699,48.85769153001847],[2.3617513171804068,48.85725137627839],[2.364450234914046,48.856409028484],[2.3685123713934337,48.855734128136696]]]}},{"type":"Feature","properties":{"number":5,"name":"5e arrondissement","aliases":["5ème Ardt","Jardin-des-Plantes","Panthéon","Quartier Saint-Victor","Quartier de la Sorbonne","Quartier du Jardin des Plantes","Quartier du Val-de-Grâce","Saint-Victor","Sorbonne","Val-de-Grace"],"labelPoint":[2.3525978682688926,48.84538699947257]},"geometry":{"type":"Polygon","coordinates":[[[2.362493498379018,48.847622410312276],[2.3660291838926137,48.84493028592922],[2.3651507681272608,48.844432405454796],[2.364945618729382,48.84426221807595],[2.3648842562025973,48.844169881500406],[2.364788766543806,48.84396370524398],[2.3618160282135983,48.83996128055735],[2.351844303854664,48.83678874372697],[2.3516626011373165,48.83678001184399],[2.3470027576645336,48.83732127049056],[2.3397399117890805,48.838853532014916],[2.336728982141496,48.83965349513613],[2.336789474189692,48.8407027249946],[2.336958995945484,48.840707756841226],[2.337116030531379,48.8407595824847],[2.3372353177864267,48.840845296425535],[2.337303512384953,48.840925956072546],[2.340838057046031,48.84734507965736],[2.3426515695832664,48.85030683982501],[2.344283566651625,48.85374961747232],[2.3445926774963546,48.85404922924987],[2.346946547063861,48.85329364714174],[2.3484702016689223,48.852612295947125],[2.349641135827662,48.85213952141159],[2.3500428561823012,48.852000270800694],[2.3516010004687717,48.851594486214694],[2.352515571675153,48.851390050115754],[2.353705957159685,48.851220903051335],[2.3555115681982888,48.850686179114064],[2.358545112198726,48.84970856698768],[2.359174815637675,48.84947930399825],[2.3598164850506382,48.849181606718474],[2.361514791805426,48.84823179045341],[2.362493498379018,48.847622410312276]]]}},{"type":"Feature","properties":{"number":6,"name":"6e arrondissement","aliases":["6ème Ardt","Luxembourg","Monnaie","Notre-Dame-des-Champs","Odéon","Quartier Notre-Dame-des-Champs","Quartier de Saint-Germain-des-Prés","Quartier de l'Odéon","Quartier de la Monnaie","Saint-Germain-des-Prés"],"labelPoint":[2.332320590310962,48.84944231662389]},"geometry":{"type":"Polygon","coordinates":[[[2.3445926774963546,48.85404922924987],[2.344283566651625,48.85374961747232],[2.3426515695832664,48.85030683982501],[2.340838057046031,48.84734507965736],[2.337303512384953,48.840925956072546],[2.3372353177864267,48.840845296425535],[2.337116030531379,48.8407595824847],[2.336958995945484,48.840707756841226],[2.336789474189692,48.8407027249946],[2.336728982141496,48.83965349513613],[2.3263806182945403,48.843060658091105],[2.3202033916121043,48.845113445692995],[2.3191530272670318,48.84550645000829],[2.3165715259220043,48.84682460831803],[2.3180431619537494,48.84733812369117],[2.319355218615322,48.847845042333375],[2.3200836750820404,48.8481801294956],[2.322133510014469,48.84924973357273],[2.3232865349741942,48.84982576851045],[2.3241397146586693,48.85023026446265],[2.3266387342444164,48.85126152914954],[2.3271931400602246,48.85162533447337],[2.3284185653936014,48.85182479473357],[2.3293099160411708,48.85261396800672],[2.330432690483257,48.85441707908063],[2.3307005429249017,48.85496376287146],[2.330841142533799,48.85519874921244],[2.3316728668040625,48.856314246964295],[2.333265988697766,48.85826456084959],[2.3324457976110042,48.858508506954806],[2.332910100578299,48.85934960615885],[2.337546764444436,48.85838861106824],[2.3408553914850594,48.85656290679506],[2.342682482361056,48.85498253104032],[2.342857446643515,48.85486264682755],[2.3445926774963546,48.85404922924987]]]}},{"type":"Feature","properties":{"number":7,"name":"7e arrondissement","aliases":["7ème Ardt","Ecole-Militaire","Gros-Caillou","Invalides","Palais-Bourbon","Quartier Saint-Thomas-d'Aquin","Quartier de l'École Militaire","Quartier des Invalides","Quartier du Gros-Caillou","Saint-Thomas-d'Aquin"],"labelPoint":[2.3129688829336916,48.85471487580181]},"geometry":{"type":"Polygon","coordinates":[[[2.300883913456114,48.851176131084145],[2.28983904037938,48.858240852910015],[2.291778091813365,48.85978145877319],[2.29361304238257,48.86112065426979],[2.2941957627633403,48.861521138827825],[2.2943208250788407,48.86158971183438],[2.2946606013806337,48.86176159543926],[2.2955572298012914,48.86216911560738],[2.2960146141113955,48.862368463855645],[2.296521218371364,48.862560099900826],[2.2975432035976273,48.86288275475964],[2.297921354423243,48.86298370095846],[2.298949421420139,48.86321677692943],[2.2992317998575404,48.86326965865298],[2.300074597688598,48.86338107649794],[2.300478428006688,48.86341628007419],[2.301590057912434,48.86347435738184],[2.318472737942572,48.86377736150741],[2.3187416690056195,48.863743144463726],[2.3209413634059763,48.863045522780595],[2.3252372011972473,48.86172976720176],[2.326102290322419,48.8614780609023],[2.3283115325955346,48.86073713622665],[2.3299089834475466,48.86013158099518],[2.332910100578299,48.85934960615885],[2.3324457976110042,48.858508506954806],[2.333265988697766,48.85826456084959],[2.3316728668040625,48.856314246964295],[2.330841142533799,48.85519874921244],[2.3307005429249017,48.85496376287146],[2.330432690483257,48.85441707908063],[2.3293099160411708,48.85261396800672],[2.3284185653936014,48.85182479473357],[2.3271931400602246,48.85162533447337],[2.3266387342444164,48.85126152914954],[2.3241397146586693,48.85023026446265],[2.3232865349741942,48.84982576851045],[2.322133510014469,48.84924973357273],[2.3200836750820404,48.8481801294956],[2.319355218615322,48.847845042333375],[2.3180431619537494,48.84733812369117],[2.316097509191233,48.8466630415586],[2.3137298735981724,48.84593328656335],[2.3105259521512465,48.847987583632055],[2.3080419591723302,48.84739225374762],[2.3073397090050967,48.847139376795404],[2.300964673357229,48.851230134680634],[2.300883913456114,48.851176131084145]]]}},{"type":"Feature","properties":{"number":8,"name":"8e arrondissement","aliases":["8ème Ardt","Champs-Elysées","Europe","Faubourg-du-Roule","Madeleine","Quartier de l'Europe","Quartier de la Madeleine","Quartier des Champs-Élysées","Quartier du Faubourg-du-Roule","Élysée"],"labelPoint":[2.311168464957952,48.87320933398341]},"geometry":{"type":"Polygon","coordinates":[[[2.325836254471965,48.86956219698903],[2.325159177504882,48.86944886574229],[2.3253195856504822,48.869011837426584],[2.324673957331719,48.86805646908108],[2.3235340500814465,48.866509863622525],[2.3235709178707706,48.866493051874286],[2.3209028536731826,48.86305739061689],[2.3187416690056195,48.863743144463726],[2.318472737942572,48.86377736150741],[2.301590057912434,48.86347435738184],[2.301516933566475,48.864524775335155],[2.300198755568845,48.86505889612841],[2.299898818578267,48.865326335192435],[2.2989130280820635,48.86855755443632],[2.297525780585638,48.87092533305967],[2.2950396012940466,48.873778669292605],[2.298155040338321,48.87807900911666],[2.3086112612243275,48.88032285190499],[2.309137784116886,48.88041506603909],[2.316655435654171,48.881331897054764],[2.327181266310053,48.88348115420053],[2.3268468795853043,48.87562578387359],[2.326575724798938,48.87558250070601],[2.3270531320019003,48.87373633176036],[2.3268503671625878,48.873278579754256],[2.326753875914007,48.87314008821256],[2.325836254471965,48.86956219698903]]]}},{"type":"Feature","properties":{"number":9,"name":"9e arrondissement","aliases":["9ème Ardt","Chaussée-d'Antin","Faubourg-Montmartre","Opéra","Quartier Saint-Georges","Quartier de Rochechouart","Quartier de la Chaussée-d'Antin","Quartier du Faubourg-Montmartre","Rochechouart","Saint-Georges"],"labelPoint":[2.337891251447309,48.87702828874966]},"geometry":{"type":"Polygon","coordinates":[[[2.3378239537121104,48.882307793138914],[2.3398160447031104,48.88202357550522],[2.3469503876273143,48.883420618724976],[2.349505641130355,48.88372538847323],[2.349590125124536,48.883487518861706],[2.3498294878111854,48.88108939531484],[2.3498589552193176,48.880626449900724],[2.349291761388838,48.87904846263941],[2.3491966105035718,48.87854668035992],[2.3491138665939735,48.87747789540671],[2.3483211304351137,48.876019723679214],[2.3482465068115874,48.875793736103766],[2.3479119512804676,48.8740239108311],[2.347880282483183,48.870704148509446],[2.34004423190851,48.871980826423716],[2.328007329038849,48.86991742140714],[2.32799095019138,48.86992896784402],[2.325836254471965,48.86956219698903],[2.326753875914007,48.87314008821256],[2.3268503671625878,48.873278579754256],[2.3270531320019003,48.87373633176036],[2.326575724798938,48.87558250070601],[2.3268468795853043,48.87562578387359],[2.327181266310053,48.88348115420053],[2.327836696355674,48.88360845690433],[2.32814048329628,48.88370820713812],[2.3294428390388187,48.884553340333],[2.3324418380034335,48.88384953021604],[2.3373039092708328,48.88239538037586],[2.3378239537121104,48.882307793138914]]]}},{"type":"Feature","properties":{"number":10,"name":"10e arrondissement","aliases":["10ème Ardt","Entrepôt","Hôpital-Saint-Louis","Porte-Saint-Denis","Porte-Saint-Martin","Quartier Saint-Vincent-de-Paul","Quartier de l'Hôpital Saint-Louis","Quartier de la Porte-Saint-Denis","Quartier de la Porte-Saint-Martin","Saint-Vincent-de-Paul"],"labelPoint":[2.3604724934332824,48.87590672989149]},"geometry":{"type":"Polygon","coordinates":[[[2.364685889119478,48.88436904340793],[2.3680255756140522,48.884153512700976],[2.368385385878913,48.88409199172528],[2.368643856897352,48.88399281918568],[2.3687753809019463,48.883898628238754],[2.3688597050371767,48.88377279551288],[2.36890979518612,48.88363285438347],[2.36900267408361,48.88345243336195],[2.3691197085308047,48.88330626812306],[2.3692224595723363,48.883214152656386],[2.369449946760859,48.88307514932437],[2.369971085350149,48.88285260934919],[2.370176629833329,48.88273806867881],[2.370222249078948,48.882649476604506],[2.3702765383475555,48.877992563591135],[2.375119254350501,48.873758410646836],[2.376988736543216,48.87206217934375],[2.374243794124576,48.87108570259702],[2.3736023332048743,48.87081081673001],[2.373090168651008,48.87062663100738],[2.3696367558009177,48.869567447339165],[2.368317291017189,48.86907447643273],[2.367614716406874,48.86883465833085],[2.3663458037284992,48.86846575071972],[2.3655227184079055,48.86820166896996],[2.363828096062926,48.86750443060333],[2.363264895211807,48.867842872396096],[2.3590120670016783,48.868455386706195],[2.356376304637887,48.86885263760979],[2.3526310157278467,48.86969449880021],[2.347880282483183,48.870704148509446],[2.3479119512804676,48.8740239108311],[2.3482465068115874,48.875793736103766],[2.3483211304351137,48.876019723679214],[2.3491138665939735,48.87747789540671],[2.3491966105035718,48.87854668035992],[2.349291761388838,48.87904846263941],[2.3498589552193176,48.880626449900724],[2.3498294878111854,48.88108939531484],[2.349590125124536,48.883487518861706],[2.349505641130355,48.88372538847323],[2.3541207498626653,48.88407170962558],[2.3591115896641806,48.88442154510418],[2.363977239489264,48.8843926907204],[2.364685889119478,48.88436904340793]]]}},{"type":"Feature","properties":{"number":11,"name":"11e arrondissement","aliases":["11ème Ardt","Folie-Méricourt","Popincourt","Quartier Saint-Ambroise","Quartier Sainte-Marguerite","Quartier de la Folie-Méricourt","Quartier de la Roquette","Roquette","Saint-Ambroise","Sainte-Marguerite"],"labelPoint":[2.3781523183874804,48.860047355249556]},"geometry":{"type":"Polygon","coordinates":[[[2.3950667928627385,48.85564427721693],[2.398432636842917,48.851345942817474],[2.399263732241717,48.84884109492935],[2.3991176935426934,48.84809783462273],[2.3959166251727804,48.848384618244744],[2.3837792387055408,48.85021267689321],[2.3815749001656292,48.85038532653489],[2.380119515262639,48.85045073005363],[2.3788181977616687,48.850629818919366],[2.3737872140936545,48.85186519672007],[2.371968671538228,48.85239572579151],[2.3717391067778215,48.85247852377004],[2.3712985482259445,48.85268360402572],[2.3709137339132345,48.8529062028289],[2.370404567937281,48.85323180635684],[2.370351165332938,48.853250615900244],[2.370280570180626,48.85325738074988],[2.369137996500428,48.853162841558365],[2.3684797219026392,48.85583080956414],[2.3667515140177042,48.86306019349359],[2.3667030510352505,48.86316992059441],[2.3642488892099323,48.8672538841255],[2.363828096062926,48.86750443060333],[2.3655227184079055,48.86820166896996],[2.3663458037284992,48.86846575071972],[2.367614716406874,48.86883465833085],[2.368317291017189,48.86907447643273],[2.3696367558009177,48.869567447339165],[2.373090168651008,48.87062663100738],[2.3736023332048743,48.87081081673001],[2.374243794124576,48.87108570259702],[2.376988736543216,48.87206217934375],[2.3779781962954387,48.871094566715904],[2.3806320617347,48.86900976456085],[2.3830811979377127,48.867180478569885],[2.3834572713746556,48.866446247245975],[2.3872978830002323,48.86308643762273],[2.3874354175392947,48.8629084152756],[2.3875193604683753,48.862758644748034],[2.3895208836493005,48.85859858588157],[2.3895584600951545,48.85855410524813],[2.3896637921625254,48.858480120893184],[2.389797639461406,48.85842678604608],[2.392274929454376,48.85768658211908],[2.394437172014095,48.8565720199962],[2.3950667928627385,48.85564427721693]]]}},{"type":"Feature","properties":{"number":12,"name":"12e arrondissement","aliases":["12ème Ardt","Bel-Air","Bercy","Picpus","Quartier de Bercy","Quartier de Picpus","Quartier des Quinze-Vingts","Quartier du Bel-Air","Quinze-Vingts","Reuilly"],"labelPoint":[2.445017595795094,48.83507252365583]},"geometry":{"type":"Polygon","coordinates":[[[2.4138796243006078,48.83357143972263],[2.414645986739075,48.83358856448586],[2.4154052247364004,48.833656218958076],[2.4162787742665572,48.83379166477183],[2.4169870998703358,48.833950096082255],[2.4174010988433494,48.83406451581242],[2.418869661010755,48.8345193729282],[2.4222505974190964,48.83568867029455],[2.421738546610853,48.83657933474864],[2.4216105257988434,48.8368557405744],[2.421550966099243,48.8370560433176],[2.4212932007709687,48.838255915639195],[2.420862833305955,48.83962355616348],[2.4204180347040367,48.840499245915645],[2.4202294784007905,48.840725704309946],[2.4198561985551725,48.841068746166236],[2.4195703209494503,48.84153329497426],[2.419422931450188,48.84248388270616],[2.4195414826695054,48.84269777457097],[2.419752266553107,48.84287338469258],[2.4198780759265808,48.84304306392153],[2.4199109726195993,48.84313228757614],[2.419920834447035,48.84322916366183],[2.4198822788049585,48.843426887162],[2.422106283164041,48.84449808002687],[2.4223036709282884,48.84439721290124],[2.4224525089395774,48.84430036232287],[2.4225693536218396,48.84420182103741],[2.4227608445439026,48.844003047865264],[2.4229325842089278,48.8437889332152],[2.4236999487196185,48.84268663439302],[2.424442684643866,48.842029597864766],[2.424556981942593,48.84194587441342],[2.424798077253759,48.84190072424104],[2.42474060513451,48.841773971352524],[2.425049798226904,48.84172517386149],[2.433637697638912,48.84098708864823],[2.4336769159326685,48.8411938888989],[2.43719129412047,48.84089140028719],[2.4379399077412933,48.84456876675302],[2.4405118400110135,48.84434523511416],[2.4406165056185904,48.844888302517695],[2.440808584814223,48.844871941000854],[2.4408747019530113,48.8452091089092],[2.4406948219870483,48.84520837331337],[2.4407671814896723,48.845916038735226],[2.446527551313934,48.84574967087559],[2.446553406475968,48.845728963297795],[2.4464112981190524,48.84493099148828],[2.449379522944785,48.844638983589775],[2.453107400557524,48.844096579955234],[2.458069758798029,48.84345434012764],[2.460806264791777,48.842927606248466],[2.46151627561232,48.84275549522448],[2.4622063617981578,48.84255110796005],[2.4633561034290508,48.84212945248241],[2.4637244103453635,48.8419675836844],[2.464194558942704,48.84173239055681],[2.464420020630613,48.841606815254835],[2.4650046419650216,48.84122464630244],[2.4655003888703537,48.84086259339933],[2.465814637870563,48.840611921574286],[2.4664677578277474,48.8400233919646],[2.4672395409864527,48.839084005354174],[2.4684505142376953,48.837878156253105],[2.4693675764662744,48.837057321810576],[2.469502202635225,48.83689332852335],[2.4697070347066723,48.83657656402996],[2.4697448898853254,48.83649435970723],[2.4697605449410895,48.83640906389616],[2.4697051223776034,48.835557022916824],[2.469530206520561,48.83494727373246],[2.4694436414921315,48.83472574826028],[2.4693468910690606,48.83453780542406],[2.4691984240786344,48.834309892094616],[2.46902645080452,48.8340903317563],[2.4687177003558527,48.83378069355963],[2.4683948134572544,48.8335495363324],[2.4680357043995205,48.83335427871746],[2.4676886641040974,48.83321570370643],[2.466727040081976,48.83272220129061],[2.4662482832865855,48.832386751823925],[2.4658919824702217,48.83206721730489],[2.4655538680444202,48.83168551087211],[2.465368765191721,48.83141742387186],[2.4651645841595644,48.831001193712176],[2.4646387389570537,48.82935568980874],[2.4645157484265834,48.82860797109736],[2.464551175908405,48.82793955300917],[2.464609420368473,48.827627492255324],[2.4650859034866626,48.82753882722692],[2.4652292534819167,48.82766996166484],[2.465433296789282,48.82756901182277],[2.4661763458410206,48.82733166080007],[2.465760946799824,48.82628087679129],[2.4653585781386287,48.82500347031093],[2.465147436229432,48.82499020753424],[2.4652483169629105,48.82449908886284],[2.46471812324683,48.823277567853935],[2.464666345703252,48.823273129727404],[2.46290717870913,48.82020405935588],[2.462638086486805,48.819342849897666],[2.462523504522036,48.81926743703118],[2.4628103447379326,48.81907557513136],[2.4628047794505994,48.819028817864115],[2.45976596977077,48.81754473613355],[2.4591956969463755,48.817334019765276],[2.459248857459161,48.81724493530948],[2.458631404827662,48.817011785554186],[2.457148244620069,48.81701797422976],[2.4545460443015448,48.81713707957117],[2.453209456844835,48.81724819198308],[2.450826423478556,48.817808530443116],[2.4496352309688625,48.81796169580841],[2.447624028259356,48.81802751840331],[2.4426654387274445,48.817956695888775],[2.442140117120039,48.81797876576701],[2.441636400289774,48.81804218044064],[2.440088671039789,48.818338558199216],[2.439797329346047,48.81836579998178],[2.4373499137158534,48.81821960647619],[2.437386078042366,48.81859727108588],[2.4374701974690285,48.81910438771623],[2.4372502488385277,48.81924289511367],[2.4369063255124175,48.81938476658815],[2.436454648687968,48.819516636385664],[2.4361520775001524,48.8195786212335],[2.435158998477242,48.81964819104226],[2.4348599911178015,48.819562598640566],[2.434500639300965,48.81937316529982],[2.4343236195911153,48.81938590133705],[2.434179758874686,48.81928080875153],[2.434303337379313,48.82015569888043],[2.4324754749484225,48.821420731259956],[2.4328899977440384,48.821690164021554],[2.432624843116764,48.82190171744639],[2.4321898623011844,48.821618810311676],[2.4303714376829673,48.82288200327716],[2.430692146357671,48.823234254771116],[2.429981982727984,48.823490616381385],[2.429073220807692,48.82375492682082],[2.4281821005144617,48.82394833635522],[2.4273141549376094,48.82408877027248],[2.4262421388230693,48.82420689757283],[2.425401070988883,48.824257480720206],[2.424424226300329,48.824269002290436],[2.4236920975718452,48.824248087787666],[2.4213757903650537,48.82413690052099],[2.4205774241393456,48.824125549392356],[2.420171112670511,48.82413714791465],[2.4197111510587526,48.82417927110868],[2.419181923257955,48.82426942611885],[2.4175521668379996,48.824655418562955],[2.417073878234993,48.824742016992325],[2.4165235860050585,48.82481332186413],[2.41587917627537,48.82485198952489],[2.4150512873630228,48.82485824781122],[2.4145992771514173,48.824845478255206],[2.413866076007297,48.82479739852205],[2.413352307560075,48.824790234899176],[2.4128384675583843,48.82480334414551],[2.4117777117952137,48.824895410788315],[2.411221334956281,48.82497677299839],[2.4106778690366313,48.82507777826068],[2.4102528187640897,48.825188112369865],[2.4097482313821175,48.82536647747898],[2.4092552769290783,48.82558404213971],[2.408634866204022,48.82590188575512],[2.4082358966119104,48.8261348377299],[2.407543134708046,48.82658280361455],[2.405452755710011,48.82814734768799],[2.404735205762522,48.828632993788645],[2.4043042315796357,48.828883535503905],[2.4039837550091856,48.82904069808636],[2.4031057205189756,48.829414173562846],[2.402487209894153,48.829647144090366],[2.395723159554499,48.82773054196876],[2.3943521600278714,48.82751344269455],[2.390258194242504,48.82572750003325],[2.3875867796577452,48.82758268081259],[2.386933967929364,48.828059892604976],[2.3850387447680204,48.82968442547997],[2.384450965516721,48.8301637031273],[2.384394312094964,48.83018533995853],[2.384421138497164,48.8302056535945],[2.38099245980066,48.83290824244929],[2.3789262850282267,48.83449454569257],[2.377076382409863,48.83601265733436],[2.3730894013276864,48.839674499663445],[2.3691818379184193,48.84255111726414],[2.3644331283557967,48.846140036887],[2.366502596086439,48.84737124454913],[2.368385844883155,48.851545345931456],[2.369137996500428,48.853162841558365],[2.370280570180626,48.85325738074988],[2.370404567937281,48.85323180635684],[2.3709137339132345,48.8529062028289],[2.371363720562105,48.85264921075403],[2.3717391067778215,48.85247852377004],[2.371968671538228,48.85239572579151],[2.3737872140936545,48.85186519672007],[2.3788181977616687,48.850629818919366],[2.380119515262639,48.85045073005363],[2.3815749001656292,48.85038532653489],[2.3837792387055408,48.85021267689321],[2.3959166251727804,48.848384618244744],[2.403452116529008,48.847717869263064],[2.406314101803262,48.847442152825145],[2.409452139637248,48.847188575257],[2.4159937826671842,48.84661250401286],[2.415690740650429,48.84510593439627],[2.4145097790075662,48.841294897120285],[2.413511477520538,48.83788228539395],[2.4122740925723667,48.83454904921716],[2.411216852230974,48.83385945426909],[2.4119209338430796,48.83373578129703],[2.4126138781371296,48.83364822821699],[2.4133143804428485,48.833592795719596],[2.4138796243006078,48.83357143972263]]]}},{"type":"Feature","properties":{"number":13,"name":"13e arrondissement","aliases":["13ème Ardt","Croulebarbe","Gare","Gobelins","Maison-Blanche","Quartier de Croulebarbe","Quartier de la Gare","Quartier de la Salpêtrière","Salpêtrière"],"labelPoint":[2.3628186166667415,48.830241446083946]},"geometry":{"type":"Polygon","coordinates":[[[2.3730894013276864,48.839674499663445],[2.377076382409863,48.83601265733436],[2.3789262850282267,48.83449454569257],[2.38099245980066,48.83290824244929],[2.384421138497164,48.8302056535945],[2.384394312094964,48.83018533995853],[2.384450965516721,48.8301637031273],[2.3850387447680204,48.82968442547997],[2.386933967929364,48.828059892604976],[2.3875867796577452,48.82758268081259],[2.390258194242504,48.82572750003325],[2.3897726820340957,48.82551568737793],[2.3888204061309533,48.825006687951806],[2.381523578373206,48.82241116954066],[2.38076247245009,48.8216959156493],[2.3686852302527845,48.817731108380244],[2.3634007226048146,48.81605794002544],[2.355917397470913,48.81597241099327],[2.352401300685059,48.81853462813314],[2.346920150516103,48.81586468725469],[2.344433707407901,48.816106254284364],[2.3444973563155713,48.81557666781794],[2.3439745257202906,48.815766126523926],[2.3440723019184397,48.81741745101645],[2.3441026074252216,48.81763429580293],[2.3446304535095113,48.819542005765896],[2.343881173214154,48.82035994929428],[2.3426793065949103,48.82119382443265],[2.3420444990774203,48.82208971523416],[2.3417268425234097,48.82269404366561],[2.341436569908492,48.823669409429264],[2.3415176930438535,48.82462713284727],[2.3416924177885465,48.82603736066011],[2.3416189679712183,48.82699913886438],[2.3416292655041557,48.827880428109765],[2.341615123474136,48.828117391385526],[2.341571571745911,48.828531868698434],[2.341345554601836,48.82940237431991],[2.341257904742979,48.83027723857339],[2.341212093057182,48.83138932803727],[2.341149339890801,48.8317904028337],[2.341142042455544,48.832492380888134],[2.3415852264492636,48.834813922460526],[2.3418923378139143,48.83682774729438],[2.3420712267361714,48.83836414501375],[2.3470027576645336,48.83732127049056],[2.3516626011373165,48.83678001184399],[2.351844303854664,48.83678874372697],[2.3618160282135983,48.83996128055735],[2.364788766543806,48.84396370524398],[2.3648842562025973,48.844169881500406],[2.364945618729382,48.84426221807595],[2.3651507681272608,48.844432405454796],[2.3660291838926137,48.84493028592922],[2.3691818379184193,48.84255111726414],[2.3730894013276864,48.839674499663445]]]}},{"type":"Feature","properties":{"number":14,"name":"14e arrondissement","aliases":["14ème Ardt","Montparnasse","Observatoire","Parc-de-Montsouris","Petit-Montrouge","Plaisance","Quartier de Plaisance","Quartier du Montparnasse","Quartier du Parc-de-Montsouris","Quartier du Petit-Montrouge"],"labelPoint":[2.324043621751365,48.82968994977456]},"geometry":{"type":"Polygon","coordinates":[[[2.32471189002934,48.8436152657751],[2.336728982141496,48.83965349513613],[2.3396909272678297,48.83886533652249],[2.3420712267361714,48.83836414501375],[2.3418923378139143,48.83682774729438],[2.3415852264492636,48.834813922460526],[2.341142042455544,48.832492380888134],[2.341149339890801,48.8317904028337],[2.341212093057182,48.83138932803727],[2.341257904742979,48.83027723857339],[2.341345554601836,48.82940237431991],[2.341571571745911,48.828531868698434],[2.341615123474136,48.828117391385526],[2.3416292655041557,48.827880428109765],[2.3416189679712183,48.82699913886438],[2.3416924177885465,48.82603736066011],[2.3415176930438535,48.82462713284727],[2.341436569908492,48.823669409429264],[2.3417268425234097,48.82269404366561],[2.3420444990774203,48.82208971523416],[2.3426793065949103,48.82119382443265],[2.343881173214154,48.82035994929428],[2.3446304535095113,48.819542005765896],[2.3441026074252216,48.81763429580293],[2.3440723019184397,48.81741745101645],[2.3439745257202906,48.815766126523926],[2.343084791473955,48.81608853379389],[2.3417118008793403,48.81634031184187],[2.333728551461577,48.81676224870356],[2.3317534899066876,48.81703938319567],[2.332373765985016,48.818217862484246],[2.330203174721378,48.81868565686222],[2.320386428455013,48.82088225143759],[2.3062407858850302,48.82401452046233],[2.3012014937462184,48.82515422161615],[2.30618031593436,48.829222214393816],[2.3085023666355786,48.831075892914136],[2.310798356891105,48.83302913165217],[2.3199278327478945,48.84051961013506],[2.321374715979428,48.83977687241744],[2.3218366986598284,48.840167786232456],[2.3214907342678166,48.84100934702556],[2.32471189002934,48.8436152657751]]]}},{"type":"Feature","properties":{"number":15,"name":"15e arrondissement","aliases":["15ème Ardt","Grenelle","Javel","Necker","Quartier Necker","Quartier Saint-Lambert","Quartier de Grenelle","Quartier de Javel","Saint-Lambert","Vaugirard"],"labelPoint":[2.296236141793797,48.84149635938343]},"geometry":{"type":"Polygon","coordinates":[[[2.28983904037938,48.858240852910015],[2.300883913456114,48.851176131084145],[2.300964661201576,48.85123012651537],[2.3073397090050967,48.847139376795404],[2.3080419591723302,48.84739225374762],[2.3105259521512465,48.847987583632055],[2.3137298735981724,48.84593328656335],[2.316097509191233,48.8466630415586],[2.3165715259220043,48.84682460831803],[2.3191530272670318,48.84550645000829],[2.3202033916121043,48.845113445692995],[2.32471189002934,48.8436152657751],[2.3214907342678166,48.84100934702556],[2.3218366986598284,48.840167786232456],[2.321374715979428,48.83977687241744],[2.3199278327478945,48.84051961013506],[2.310798356891105,48.83302913165217],[2.3085023666355786,48.831075892914136],[2.30618031593436,48.829222214393816],[2.3012014937462184,48.82515422161615],[2.297071994670944,48.82605288669193],[2.292223161328421,48.82713633804053],[2.283316021740521,48.830881225062136],[2.279028002946965,48.83245745096407],[2.2755070808921616,48.82959133266144],[2.2727448755202033,48.82792831384255],[2.2678311692932334,48.82783956816271],[2.2676314599935177,48.827960172115915],[2.2673204696719362,48.831492024443065],[2.2673409803144042,48.83153331290721],[2.267606885831736,48.83171809659751],[2.2686034722350885,48.83228110342919],[2.269653459412832,48.83285951021723],[2.2700416292376473,48.83299723724776],[2.2678546586739143,48.834562385309155],[2.267299969111108,48.83465476335214],[2.2629585384959285,48.83389712733859],[2.265174896626455,48.83616630008328],[2.2675904546230514,48.838518675049905],[2.2697770880534653,48.840872753630585],[2.2709523490571906,48.84207588553523],[2.2715680550512225,48.84273255419861],[2.273440651715915,48.844613905562085],[2.275714598569264,48.84695956163104],[2.2769892568525467,48.848048306770636],[2.279156978646895,48.84976807169901],[2.2799597853351377,48.850356465957795],[2.2843585357919483,48.853445311178774],[2.288106053799725,48.85612125432793],[2.288335561248286,48.856531779581445],[2.2885856504395146,48.85693719052852],[2.288940302714653,48.85745847112639],[2.289129267169513,48.85766411921116],[2.28983904037938,48.858240852910015]]]}},{"type":"Feature","properties":{"number":16,"name":"16e arrondissement","aliases":["16ème Ardt","Auteuil","Chaillot","Muette","Passy","Porte-Dauphine","Quartier d'Auteuil","Quartier de la Muette","Quartier de la Porte-Dauphine"],"labelPoint":[2.2566838008232435,48.857042652779256]},"geometry":{"type":"Polygon","coordinates":[[[2.258884349335774,48.88028147480942],[2.277490577203393,48.87796402719367],[2.279801073127652,48.87865398575684],[2.283782457126006,48.87735194502258],[2.2950396012940466,48.873778669292605],[2.297525780585638,48.87092533305967],[2.2989130280820635,48.86855755443632],[2.299898818578267,48.865326335192435],[2.300198755568845,48.86505889612841],[2.301516933566475,48.864524775335155],[2.301590057912434,48.86347435738184],[2.300478428006688,48.86341628007419],[2.299786477938701,48.863349781779924],[2.2992317998575404,48.86326965865298],[2.297921354423243,48.86298370095846],[2.297430508756709,48.862850529591825],[2.296365882978675,48.8625052813577],[2.295886813903743,48.86231437413767],[2.2950897679417164,48.86196228923669],[2.2941957627633403,48.861521138827825],[2.29361304238257,48.86112065426979],[2.291778091813365,48.85978145877319],[2.28983904037938,48.858240852910015],[2.289056833076756,48.85759403552592],[2.2888662654744887,48.85735529584473],[2.2885856504395146,48.85693719052852],[2.288335561248286,48.856531779581445],[2.288106053799725,48.85612125432793],[2.2843585357919483,48.853445311178774],[2.2799597853351377,48.850356465957795],[2.279156978646895,48.84976807169901],[2.2769892568525467,48.848048306770636],[2.275714598569264,48.84695956163104],[2.273440651715915,48.844613905562085],[2.2715680550512225,48.84273255419861],[2.2709523490571906,48.84207588553523],[2.2697770880534653,48.840872753630585],[2.2675904546230514,48.838518675049905],[2.265174896626455,48.83616630008328],[2.2629585384959285,48.83389712733859],[2.255153178841653,48.83480588968256],[2.2516495837894426,48.83890537679848],[2.2512241958825805,48.84289685545755],[2.2525412917930714,48.845578800390676],[2.2506615508056007,48.84562704635722],[2.2424656340958333,48.84773201745859],[2.240221072495259,48.84967324345757],[2.2400493525243124,48.8497949363902],[2.2398454007055077,48.84990934806242],[2.2395959816552957,48.850022546771584],[2.239409867462081,48.85008490232253],[2.2241511608417213,48.85344363366293],[2.2240784472468698,48.85395911712158],[2.224141516097633,48.85505261104095],[2.224330282158946,48.855946049189185],[2.224981031937296,48.85781898408274],[2.2257510441241193,48.859709745446885],[2.226413636401583,48.860961372366305],[2.226831210289747,48.86165295927459],[2.2272874273094594,48.86256535619142],[2.228249480861213,48.86515835051351],[2.228651087656746,48.865761876159624],[2.229935985847487,48.86725300702316],[2.2306159655303204,48.86799131823931],[2.232124116238643,48.86955475455265],[2.235920037587994,48.87062336185396],[2.237388106301098,48.87101718267975],[2.239630737012329,48.87156219466963],[2.2400845214410547,48.87170988175472],[2.2404455183577388,48.871884724175686],[2.2408188076486626,48.87211629617724],[2.241180927943391,48.87237357329988],[2.243351536661658,48.8741184234664],[2.245624955368594,48.876355313611356],[2.2548240803714226,48.874079833632734],[2.255411771227289,48.8742635254886],[2.258410281236941,48.88010021593826],[2.258884349335774,48.88028147480942]]]}},{"type":"Feature","properties":{"number":17,"name":"17e arrondissement","aliases":["17ème Ardt","Batignolles","Batignolles-Monceau","Epinettes","Plaine de Monceaux","Quartier de la Plaine-de-Monceau","Quartier des Batignolles","Quartier des Ternes","Quartier des Épinettes","Ternes"],"labelPoint":[2.306204564639497,48.887034674166586]},"geometry":{"type":"Polygon","coordinates":[[[2.298155040338321,48.87807900911666],[2.2950396012940466,48.873778669292605],[2.283782457126006,48.87735194502258],[2.279801073127652,48.87865398575684],[2.279963953459513,48.87870262247549],[2.280385638436292,48.88051963667476],[2.2809079174071667,48.88287914328473],[2.2856620566664128,48.8865719033905],[2.2915401424594446,48.889453858099145],[2.2950597011223373,48.88986886051773],[2.2985719415628854,48.89171153210167],[2.307501404989392,48.89593813233242],[2.312274434228998,48.89773761165882],[2.3185163897969163,48.89963443357818],[2.3203874245799225,48.90075835717211],[2.3263911691339363,48.90096623569335],[2.330149980858341,48.901037399307995],[2.3259142140908415,48.88853299519871],[2.3255901614406964,48.88749744494267],[2.327429281833641,48.88352182601088],[2.316655435654171,48.881331897054764],[2.309137784116886,48.88041506603909],[2.3086112612243275,48.88032285190499],[2.298155040338321,48.87807900911666]]]}},{"type":"Feature","properties":{"number":18,"name":"18e arrondissement","aliases":["18ème Ardt","Buttes-Montmartre","Clignancourt","Goutte-d'Or","Grandes-Carrières","La Chapelle","Quartier de Clignancourt","Quartier de la Chapelle","Quartier de la Goutte-d'Or","Quartier des Grandes-Carrières"],"labelPoint":[2.348097213649817,48.89196563053815]},"geometry":{"type":"Polygon","coordinates":[[[2.3661945314554758,48.88595534211051],[2.364685889119478,48.88436904340793],[2.363977239489264,48.8843926907204],[2.3591115896641806,48.88442154510418],[2.3541207498626653,48.88407170962558],[2.349505641130355,48.88372538847323],[2.3469503876273143,48.883420618724976],[2.3398160447031104,48.88202357550522],[2.3378239537121104,48.882307793138914],[2.3373039092708328,48.88239538037586],[2.3324418380034335,48.88384953021604],[2.3294428390388187,48.884553340333],[2.32814048329628,48.88370820713812],[2.327836696355674,48.88360845690433],[2.327429281833641,48.88352182601088],[2.3255901614406964,48.88749744494267],[2.3259142140908415,48.88853299519871],[2.330149980858341,48.901037399307995],[2.3364679978367455,48.90117890723693],[2.37029345197318,48.901859538006924],[2.3701921326975057,48.90167201388989],[2.3701650048114793,48.9015209242839],[2.37020932457851,48.90086955283497],[2.3702954658837894,48.89832534797829],[2.37038844010153,48.89663234805413],[2.3712590850015998,48.89591814571873],[2.371301250657844,48.89580393254691],[2.371789014735282,48.89541043547248],[2.370519120365795,48.894639326933486],[2.3700236380890516,48.894029051733554],[2.3695213752859106,48.892917903611036],[2.368310475606829,48.8900761483918],[2.367579858007283,48.88864506436505],[2.366793030006966,48.88664142158828],[2.3661945314554758,48.88595534211051]]]}},{"type":"Feature","properties":{"number":19,"name":"19e arrondissement","aliases":["19ème Ardt","Amérique","Buttes-Chaumont","Combat","Pont-de-Flandre","Quartier d'Amérique","Quartier de la Villette","Quartier du Combat","Quartier du Pont-de-Flandre","Villette"],"labelPoint":[2.3830960459542148,48.88714926222363]},"geometry":{"type":"Polygon","coordinates":[[[2.3844351341776946,48.90216190642629],[2.3907099422043117,48.90097591958608],[2.3955204419084732,48.898264464272415],[2.3977716933944997,48.89460556646632],[2.3986217063451334,48.89134604370245],[2.399190593840471,48.88822947341056],[2.399214074917856,48.88541625828635],[2.4001080697073203,48.88381244633413],[2.4014909494254333,48.88261725468232],[2.404627505593768,48.88122668496221],[2.409344891956197,48.880262551504295],[2.410838854082862,48.87842343538447],[2.4080791042012173,48.877632247780454],[2.406937502206415,48.87722279520818],[2.406463061034781,48.87713864352644],[2.405971791607717,48.877009356322084],[2.4025674709029214,48.87600687749812],[2.3993267824531004,48.87556831990478],[2.398932388131729,48.87548032098539],[2.397300688616711,48.87543488904756],[2.3953300441787144,48.87525363912762],[2.3930517744668323,48.87537322478996],[2.391768839361778,48.875464230387344],[2.3903973004065495,48.875445732424176],[2.3897767269819563,48.875335142620514],[2.388976473323318,48.87496654209419],[2.388548067861398,48.87478733168134],[2.388210846222737,48.87471482667854],[2.3870000098063735,48.87464351421091],[2.386768197573496,48.87459676397184],[2.3863002618418574,48.87441162672125],[2.385213440762947,48.873859223406704],[2.384922410316433,48.87375251343974],[2.384446250826428,48.87365496481021],[2.383100537269358,48.87348358031652],[2.3822347198987313,48.87334004737761],[2.380589626252265,48.87300894639828],[2.379263848750158,48.87269300042866],[2.376988736543216,48.87206217934375],[2.375119254350501,48.873758410646836],[2.3702765383475555,48.877992563591135],[2.370222249078948,48.882649476604506],[2.370176629833329,48.88273806867881],[2.369971085350149,48.88285260934919],[2.369449946760859,48.88307514932437],[2.3692224595723363,48.883214152656386],[2.3691197085308047,48.88330626812306],[2.36900267408361,48.88345243336195],[2.36890979518612,48.88363285438347],[2.3688597050371767,48.88377279551288],[2.3687753809019463,48.883898628238754],[2.368643856897352,48.88399281918568],[2.368385385878913,48.88409199172528],[2.3680255756140522,48.884153512700976],[2.364685889119478,48.88436904340793],[2.3661945314554758,48.88595534211051],[2.366793030006966,48.88664142158828],[2.367579858007283,48.88864506436505],[2.368310475606829,48.8900761483918],[2.3695213752859106,48.892917903611036],[2.3700236380890516,48.894029051733554],[2.370519120365795,48.894639326933486],[2.371789014735282,48.89541043547248],[2.371301250657844,48.89580393254691],[2.3712590850015998,48.89591814571873],[2.37038844010153,48.89663234805413],[2.3702954658837894,48.89832534797829],[2.37020932457851,48.90086955283497],[2.370167109508606,48.90143468405243],[2.370166120504882,48.90157437721113],[2.3701921326975057,48.90167201388989],[2.37029345197318,48.901859538006924],[2.3844351341776946,48.90216190642629]]]}},{"type":"Feature","properties":{"number":20,"name":"20e arrondissement","aliases":["20ème Ardt","Belleville","Charonne","Ménilmontant","Père-Lachaise","Quartier Saint-Fargeau","Quartier de Belleville","Quartier de Charonne","Quartier du Père-Lachaise","Saint-Fargeau"],"labelPoint":[2.400876265264757,48.86243730535129]},"geometry":{"type":"Polygon","coordinates":[[[2.4124970690002914,48.87638193043437],[2.4136185806028765,48.87258345086102],[2.413643322225428,48.87244953190744],[2.4140112221424377,48.86890110188823],[2.413861596105784,48.86408153553402],[2.414094382528524,48.862311154842445],[2.414632598830718,48.85906440462428],[2.4164310063699843,48.848785973397746],[2.4159937826671842,48.84661250401286],[2.409452139637248,48.847188575257],[2.406314101803262,48.847442152825145],[2.403452116529008,48.847717869263064],[2.3991176935426934,48.84809783462273],[2.399263732241717,48.84884109492935],[2.398432636842917,48.851345942817474],[2.3950667928627385,48.85564427721693],[2.394437172014095,48.8565720199962],[2.392274929454376,48.85768658211908],[2.389797639461406,48.85842678604608],[2.3896637921625254,48.858480120893184],[2.3895813575209797,48.858533448051844],[2.3895208836493005,48.85859858588157],[2.3875193604683753,48.862758644748034],[2.3874354175392947,48.8629084152756],[2.3872978830002323,48.86308643762273],[2.3834572713746556,48.866446247245975],[2.3830811979377127,48.867180478569885],[2.3806320617347,48.86900976456085],[2.3779781962954387,48.871094566715904],[2.376988736543216,48.87206217934375],[2.379263848750158,48.87269300042866],[2.380589626252265,48.87300894639828],[2.3822347198987313,48.87334004737761],[2.383100537269358,48.87348358031652],[2.384446250826428,48.87365496481021],[2.384922410316433,48.87375251343974],[2.385213440762947,48.873859223406704],[2.3863002618418574,48.87441162672125],[2.386768197573496,48.87459676397184],[2.3870000098063735,48.87464351421091],[2.388210846222737,48.87471482667854],[2.388548067861398,48.87478733168134],[2.388976473323318,48.87496654209419],[2.3897767269819563,48.875335142620514],[2.3903973004065495,48.875445732424176],[2.391768839361778,48.875464230387344],[2.3930517744668323,48.87537322478996],[2.3953300441787144,48.87525363912762],[2.397300688616711,48.87543488904756],[2.398932388131729,48.87548032098539],[2.3993267824531004,48.87556831990478],[2.4025674709029214,48.87600687749812],[2.405971791607717,48.877009356322084],[2.406463061034781,48.87713864352644],[2.406937502206415,48.87722279520818],[2.4080791042012173,48.877632247780454],[2.410838854082862,48.87842343538447],[2.4124970690002914,48.87638193043437]]]}}]}
